[{"OBJECT_NAME":"YAOGAN-12","OBJECT_ID":"2011-066B","EPOCH":"2026-03-09T23:39:51.505056","MEAN_MOTION":15.25407482,"ECCENTRICITY":0.00091131,"INCLINATION":97.1283,"RA_OF_ASC_NODE":112.2403,"ARG_OF_PERICENTER":209.5466,"MEAN_ANOMALY":150.5259,"EPHEMERIS_TYPE":0,"CLASSIFICATION_TYPE":"U","NORAD_CAT_ID":37875,"ELEMENT_SET_NO":999,"REV_AT_EPOCH":79691,"BSTAR":0.0002218082,"MEAN_MOTION_DOT":5.54e-5,"MEAN_MOTION_DDOT":0},{"OBJECT_NAME":"STARLINK-31812","OBJECT_ID":"2024-093U","EPOCH":"2026-03-09T10:09:33.926976","MEAN_MOTION":15.27577257,"ECCENTRICITY":0.00014439,"INCLINATION":43,"RA_OF_ASC_NODE":210.4852,"ARG_OF_PERICENTER":270.2523,"MEAN_ANOMALY":89.8163,"EPHEMERIS_TYPE":0,"CLASSIFICATION_TYPE":"U","NORAD_CAT_ID":59800,"ELEMENT_SET_NO":999,"REV_AT_EPOCH":10272,"BSTAR":-6.6400018e-5,"MEAN_MOTION_DOT":-2.089e-5,"MEAN_MOTION_DDOT":0}]
